#dP2022  2 26 18  0  0.00000000      96 __u+U ITR00 EXT  IAC
## 2198 583200.00000000   900.00000000 59636 0.7500000000000
+  118   C06C07C08C09C10C11C12C13C14C16C19C20C21C22C23C24C25
+        C26C27C28C29C30C32C33C34C35C36C37C38C39C40C41C42C43
+        C44C45C46E01E02E03E04E05E07E08E09E10E11E12E13E14E15
+        E18E19E21E24E25E26E27E30E31E33E34E36G01G02G03G04G05
+        G06G07G08G09G10G11G12G13G14G15G16G17G18G19G20G21G22
+        G23G24G25G26G27G28G29G30G31G32J01J02J03R01R02R03R04
+        R05R07R08R09R11R12R13R14R15R17R18R19R20R21R22R24  0
++         8 11  9  8  8  8  9  7 10  9  7  9  9  7  9  8  8
++         7  8  9  8  9 10  8  9  9  8  9 10  9  9  9  9  7
++         8  9  9  8  7  8  7  7  6 11  8  7  8  6  9  7  8
++         7  8  8  7  7  8  8  7  7  8  8  9  7  6  9  7  6
++         8  5  7  6  7  7  7  8  7  8  7  8  6  6  7  8  7
++         9  7  7  6  8  8  8  6  8 11 11 10  9  8  8  8  7
++         8  9  8  8  8  8  8  6  8 10  9  8  8  7 10  8  0
%c M  cc GPS ccc cccc cccc cccc cccc ccccc ccccc ccccc ccccc
%c cc cc ccc ccc cccc cccc cccc cccc ccccc ccccc ccccc ccccc
%f  0.0000000  0.000000000  0.00000000000  0.000000000000000
%f  0.0000000  0.000000000  0.00000000000  0.000000000000000
%i    0    0    0    0      0      0      0      0         0
%i    0    0    0    0      0      0      0      0         0
/* IAC                                ULTRA-RAPID PREDICTION
/* S/V CLOCKS ARE ALIGNED TO GNSS TIME                      
/* G:C1WC2W R:C1PC2P E:C1XC5X C:C2IC6I J:C1CC2S             
/* PCV:IGS14_2196 OL/AL:FES2004  NONE     YN ORB:CoN CLK:CoN
*  2022 02 27  7 45  0.00000000
PC06  -6251.537361  39030.579210 -14363.128072    122.683063
PC07  -8347.810024  25547.492918  32484.834389   -104.464889
PC08 -20577.279910  30819.665852 -20229.614968    162.755761
PC09   -104.459553  41699.545260  -3817.886718   -559.202440
PC10    582.614169  27812.225231  32008.404241    139.549392
PC11  -4920.256700 -27296.024080   3020.187188   -182.949471
PC12   6518.469496 -23213.613083 -14005.907822    681.490709
PC13 -12608.279018  31088.240572 -25578.831445   -104.625644
PC14 -10433.101963 -18065.070324  18534.205740    452.624726
PC16  -6264.172384  38579.234795 -15313.272344     91.533188
PC19  19492.160192  16378.257768 -11414.899614    892.049573
PC20   1885.759051  17073.562379 -21979.760086   -832.824445
PC21  18016.014161  -7496.017795  19977.954053   -933.726431
PC22  26506.937534   6239.492038   6164.602523   -958.765728
PC23 -22419.517119   2252.748094 -16471.786760   -952.154000
PC24   9920.552115 -21269.288761 -15091.663289   -944.656069
PC25 -10113.426645 -12738.237046 -22686.124951   -773.374801
PC26  21691.877679 -17523.240180    -54.383414    773.338384
PC27 -11792.077387  15839.393478  19691.736310    683.901603
PC28 -16099.957422  -4674.173577  22312.216745     37.532249
PC29  11784.811335  22446.665666 -11660.017940    520.727412
PC30    -67.931983  27173.364444   6285.306241    494.173880
PC32 -17983.001756   7599.830533 -19918.155690   -970.871796
PC33 -19473.139726 -16326.013906  11526.696741   -960.584045
PC34   -521.181003 -27395.845141  -5376.530778   -459.782057
PC35  16330.975244   4960.655059 -22077.039953    158.667932
PC36   9322.136637  13343.270202  22683.421460   -920.659641
PC37 -22554.452115  16424.425287  -1029.361323   -952.645813
PC38 -24489.972274  31600.663654 -13574.457992    214.346128
PC39  -8877.296640  34904.009152 -21761.591205     34.825493
PC40 -11909.841365  19447.511696  35435.852414    247.935762
PC41 -26533.374440  -6490.381905  -5667.025980   -944.986671
PC42   -727.717829 -16878.071712  22256.075391   -933.719614
PC43 -11427.510904 -22953.794582  11039.608157   -939.208633
PC44  11445.924392 -16110.951613 -19726.639139    578.265237
PC45  22438.571177  -2536.537960  16373.461768    691.352242
PC46  -8704.646957  21083.438665  16100.407418   -190.520688
PE01  14124.327862  13275.699688  22362.090267   -586.989477
PE02 -14320.343113 -13204.589794 -22301.374433    282.935243
PE03 -17464.497824 -23827.898356   1768.295098   -532.058705
PE04  22722.648738  10800.405015  15599.631022   -973.551780
PE05  -1834.798279 -23094.938030  18428.142038   -205.174233
PE07 -14635.364909   8932.044506 -24122.437616   -643.203579
PE08 -22652.298625 -10404.901895 -15954.213484   -486.582076
PE09  14344.559236  -9100.786200  24244.451174   5346.078904
PE10  18291.115152  -9608.042189 -21199.635562   -497.629957
PE11  17289.491158 -19496.175930 -14064.625046   4355.712727
PE12  16543.098649   1397.758774 -24504.497069   4738.925485
PE13 -17357.667349  18976.453005  14653.364381    426.873559
PE14  15358.103574 -13068.427641 -23761.596660  -1760.250522
PE15 -16419.904168  -1535.080901  24589.075406    760.834881
PE18  -2623.614996  21515.559493  14475.717528  -1744.094650
PE19  15943.681633  24592.771125  -4113.916963   -466.053866
PE21  -6913.055928  16999.967693  23221.352662   -719.570724
PE24  25932.897855 -10455.847354  -9682.127178  -1413.111856
PE25   7177.699336 -16989.357708 -23148.434145   -565.036072
PE26  -7500.340613  28227.601057  -4789.381226   -853.294784
PE27 -25201.178382  11192.794072  10782.890367   -241.633851
PE30 -28183.953742  -2018.285111  -8871.468230   -307.391306
PE31  28497.975641   1154.739904   7898.975475   -492.786189
PE33   5806.993012  21038.581430 -19980.585280   -459.045799
PE34  -5989.840204 -20879.756692  20105.900550   -504.033334
PE36   8087.529078 -28222.141857   3843.286058   -338.119742
PG01 -13879.767969  22347.438412   1508.609134    421.309589
PG02  17210.290289  -7170.828443 -18309.101349   -651.556814
PG03 -14153.475273  12853.045413 -18492.448137   -140.306840
PG04  -5466.245000  17593.488243 -19095.658079   -187.033222
PG05  25412.326809  -5462.998682   5676.951223    -72.874682
PG06  10814.362569  10322.143790 -21876.670024    214.623635
PG07  -2248.326670  22999.368950  13020.408047    313.064530
PG08 -12949.244310   7797.779540  21813.714773    -57.807273
PG09   4864.805195  23356.813643 -11705.504254   -352.320790
PG10 -16127.873185 -11799.997578  17784.520661   -332.012064
PG11  18230.059313  -4339.023192 -18821.840962    -76.263449
PG12  17607.878647 -10689.856946 -16957.014591   -177.201423
PG13  16208.998516   1383.138434  20875.069390    268.423571
PG14  14847.073475  12983.712587  17815.801973    -88.560879
PG15  12055.482148 -10020.651021  21031.711872    -80.695535
PG16 -26700.195802   -445.443579   2169.587450   -474.586688
PG17  13516.644929  22671.310494  -2273.939989    580.523625
PG18   3152.403134 -22972.549038  12855.325062    231.284736
PG19  16377.587312  18291.988354 -10625.207402    124.327417
PG20  26029.554723  -1291.968621  -4386.377678    516.523185
PG21 -16994.963181  16100.675365  12567.814901    158.684601
PG22 -17303.287304 -15916.106249 -12133.682826    219.759480
PG23  -3989.425801 -14786.178573  21698.071240     -2.389985
PG24  14570.553822 -20984.801741   6136.541980    272.050638
PG25   3964.204615 -15300.862474 -21598.038642    291.284590
PG26 -24147.245834  -5653.355726 -10007.369492    186.656687
PG27 -17856.300092  -4478.091620  19092.360489    135.714673
PG28  21205.879799  10259.089858  12557.641902    391.560750
PG29  -1341.446403 -22794.220708 -13568.319443   -485.234887
PG30   4900.331531  18530.394380  18354.509862   -515.830044
PG31 -13191.715354  -7944.156064 -21761.217270   -166.620526
PG32 -16949.561423 -19645.079418  -5991.486309    -75.154488
PJ01 -24766.676001  15764.154477 -25662.377012    226.121335
PJ02 -31425.596512  24729.199102  18301.570865     -1.620491
PJ03 -27368.439719  26228.732551  23544.964871     -0.720844
PR01  -2640.979552 -13669.667502  21375.229669      7.142445
PR02 -18596.266921 -16097.334042   6929.709898    510.932644
PR03 -21800.617963  -8197.479735 -10422.042647     52.210756
PR04 -12630.278118   3923.371648 -21783.630115    129.569505
PR05   3362.708340  13965.162381 -21058.795315     88.453171
PR07  21590.925535   7644.669999  11217.532393     32.083545
PR08  12558.950368  -4203.152354  21853.968577    -63.764849
PR09   9844.859352   7281.747960  22397.355011     41.670483
PR11  21444.333265 -13358.211409  -3547.196402     44.772794
PR12   8359.757666 -14654.892049 -19103.011437     17.293985
PR13  -8553.730107  -7801.114026 -22751.369539    -18.790439
PR14 -21660.365473   4392.571316 -12721.387511     74.833588
PR15 -21291.990474  13368.473585   4338.020602     97.909660
PR17 -10389.845451  -2552.021491  23165.216136    505.232846
PR18  -9177.034020  15125.849282  18366.009624    108.656171
PR19  -4344.307731  24650.050350   4911.241301   -179.685567
PR20   4758.318254  20222.870450 -14755.480641    -65.704786
PR21  10414.544234   1041.497212 -23259.209240   -281.273647
PR22   9009.558384 -16021.084587 -17749.169394   -167.322703
PR24  -5817.609585 -19662.185675  15188.101841     82.073299
EOF
